ELEKTRO-L 3             
1 44903U 19095A   26169.83866277 -.00000102  00000+0  00000+0 0  9997
2 44903   0.2623  81.5227 0000953 353.1647 210.2570  1.00271353 23729
GONETS-M 14             
1 44905U 19096A   26169.81915145  .00000064  00000+0  39129-3 0  9991
2 44905  82.5241  83.6296 0013587 144.4321 215.7667 12.42869966293880
GONETS-M 15             
1 44906U 19096B   26169.84854994  .00000105  00000+0  68893-3 0  9995
2 44906  82.5260  84.0731 0014964 167.7302 192.4145 12.42871689293852
GONETS-M 16             
1 44907U 19096C   26169.79424013  .00000045  00000+0  25599-3 0  9994
2 44907  82.5206  83.0584 0009856 210.8011 149.2492 12.42891749293831
RS-44 & BREEZE-KM R/B   
1 44909U 19096E   26169.72518458  .00000008  00000+0 -19365-4 0  9991
2 44909  82.5220 338.6827 0218230 140.5822 221.1390 12.79748853302548
JILIN-1 KUANFU 01       
1 45016U 20003A   26169.80894713  .00002457  00000+0  15199-3 0  9990
2 45016  97.5029 243.7328 0008232 301.1700  58.8722 15.10732140355577
XINGYUN-2 01            
1 45602U 20028A   26169.86290942  .00001444  00000+0  88260-4 0  9993
2 45602  97.4860 162.2302 0008563 187.5299 172.5804 15.11809690335099
XINGYUN-2 02            
1 45603U 20028B   26169.90801950  .00000752  00000+0  48112-4 0  9999
2 45603  97.5062 175.8692 0009138 266.0715  93.9470 15.11538819335099
HAIYANG-1D              
1 45721U 20036A   26169.85680544  .00000046  00000+0  31827-4 0  9998
2 45721  98.4562 111.5008 0003486 124.3677 235.7838 14.34173765315211
M2 PATHFINDER           
1 45727U 20037E   26169.77589095  .00001252  00000+0  93452-4 0  9997
2 45727  97.8146   1.0255 0012578 141.5732 218.6392 15.04680225325735
GAOFEN DUOMO (GFDM)     
1 45856U 20042A   26169.83346912  .00000047  00000+0  13620-4 0  9992
2 45856  97.7742 229.6597 0012417  70.0230 290.2317 14.76880687321255
ZIYUAN 3-03 (ZY 3-03)   
1 45939U 20051A   26169.82860682  .00002310  00000+0  10636-3 0  9996
2 45939  97.2829 237.5018 0002712 337.3046  22.8070 15.21266306327590
NEMO-HD                 
1 46277U 20061F   26169.81414330  .00008608  00000+0  18680-3 0  9990
2 46277  97.1915 231.7507 0002191  79.7731 280.3765 15.44621361322238
NAPA-1                  
1 46320U 20061BA  26169.88570161  .00059089  00000+0  52886-3 0  9996
2 46320  97.2459 244.1209 0001504 175.0064 185.1212 15.68177385322006
JILIN-1 GAOFEN 3E       
1 46457U 20065D   26169.82180566  .00050875  00000+0  54068-3 0  9999
2 46457  97.2239 222.4688 0012890 151.8975 208.2983 15.63795946320011
JILIN-1 GAOFEN 3F       
1 46458U 20065E   26169.84963127  .00042345  00000+0  50078-3 0  9994
2 46458  97.2193 219.8250 0014455 140.8150 219.4158 15.61048113319963
JILIN-1 GAOFEN 3G       
1 46459U 20065F   26169.73988316  .00078783  00000+0  61306-3 0  9991
2 46459  97.2259 226.5428 0007881  59.0840 301.1197 15.71466701320187
JILIN-1 GAOFEN 3H       
1 46460U 20065G   26169.84255374  .00060080  00000+0  54171-3 0  9999
2 46460  97.2205 222.9671 0003332 338.5042  21.6079 15.67986386320146
HAIYANG-2C              
1 46469U 20066A   26169.82856145  .00000129  00000+0  19107-3 0  9998
2 46469  65.9954 211.1977 0008872 237.9273 122.0934 13.83376492289720
HJ-2A                   
1 46478U 20067A   26169.85940234  .00000808  00000+0  12313-3 0  9991
2 46478  97.8828 248.1924 0002343 259.4767 100.6179 14.76518929308507
HJ-2B                   
1 46479U 20067B   26169.82847413  .00000090  00000+0  20006-4 0  9996
2 46479  97.8893 249.1851 0001299  99.1504 260.9853 14.76558458308507
GONETS-M 17             
1 46486U 20068A   26169.89987771  .00000015  00000+0  34037-4 0  9990
2 46486  82.4987 346.4363 0023017  33.9010 326.3536 12.42873247259370
GONETS-M 18             
1 46487U 20068B   26169.86353375  .00000000  00000+0 -68862-4 0  9993
2 46487  82.4940 345.5761 0020243  30.7375 329.4885 12.42873541259355
GONETS-M 19             
1 46488U 20068C   26169.83892703 -.00000029  00000+0 -27781-3 0  9990
2 46488  82.4966 346.0422 0014208  46.3616 313.8639 12.42892067259458
DEKART                  
1 46493U 20068H   26169.83400007  .00009506  00000+0  26170-3 0  9996
2 46493  97.8739 179.2221 0006979 278.7501  81.2952 15.37379942316025
NORBI                   
1 46494U 20068J   26169.83718999  .00018324  00000+0  34591-3 0  9993
2 46494  97.8621 185.9474 0004987 237.9652 122.1113 15.48510891316465
SALSAT                  
1 46495U 20068K   26169.45370448  .00006100  00000+0  21401-3 0  9990
2 46495  97.8850 172.5954 0007987 302.8690  57.1780 15.29814902315557
