OBJECT_NAME,OBJECT_ID,EPOCH,MEAN_MOTION,ECCENTRICITY,INCLINATION,RA_OF_ASC_NODE,ARG_OF_PERICENTER,MEAN_ANOMALY,EPHEMERIS_TYPE,CLASSIFICATION_TYPE,NORAD_CAT_ID,ELEMENT_SET_NO,REV_AT_EPOCH,BSTAR,MEAN_MOTION_DOT,MEAN_MOTION_DDOT
ELEKTRO-L 3,2019-095A,2026-06-18T20:07:40.463328,1.00271353,.0000953,0.2623,81.5227,353.1647,210.2570,0,U,44903,999,2372,0,-.102E-5,0
GONETS-M 14,2019-096A,2026-06-18T19:39:34.685280,12.42869966,.0013587,82.5241,83.6296,144.4321,215.7667,0,U,44905,999,29388,.39129E-3,.64E-6,0
GONETS-M 15,2019-096B,2026-06-18T20:21:54.714816,12.42871689,.0014964,82.5260,84.0731,167.7302,192.4145,0,U,44906,999,29385,.68893E-3,.105E-5,0
GONETS-M 16,2019-096C,2026-06-18T19:03:42.347232,12.42891749,.0009856,82.5206,83.0584,210.8011,149.2492,0,U,44907,999,29383,.25599E-3,.45E-6,0
RS-44 & BREEZE-KM R/B,2019-096E,2026-06-18T17:24:15.947712,12.79748853,.021823,82.5220,338.6827,140.5822,221.1390,0,U,44909,999,30254,-.19365E-4,.8E-7,0
JILIN-1 KUANFU 01,2020-003A,2026-06-18T19:24:53.032032,15.10732140,.0008232,97.5029,243.7328,301.1700,58.8722,0,U,45016,999,35557,.15199E-3,.2457E-4,0
XINGYUN-2 01,2020-028A,2026-06-18T20:42:35.373888,15.11809690,.0008563,97.4860,162.2302,187.5299,172.5804,0,U,45602,999,33509,.8826E-4,.1444E-4,0
XINGYUN-2 02,2020-028B,2026-06-18T21:47:32.884800,15.11538819,.0009138,97.5062,175.8692,266.0715,93.9470,0,U,45603,999,33509,.48112E-4,.752E-5,0
HAIYANG-1D,2020-036A,2026-06-18T20:33:47.990016,14.34173765,.0003486,98.4562,111.5008,124.3677,235.7838,0,U,45721,999,31521,.31827E-4,.46E-6,0
M2 PATHFINDER,2020-037E,2026-06-18T18:37:16.978080,15.04680225,.0012578,97.8146,1.0255,141.5732,218.6392,0,U,45727,999,32573,.93452E-4,.1252E-4,0
GAOFEN DUOMO (GFDM),2020-042A,2026-06-18T20:00:11.731968,14.76880687,.0012417,97.7742,229.6597,70.0230,290.2317,0,U,45856,999,32125,.1362E-4,.47E-6,0
ZIYUAN 3-03 (ZY 3-03),2020-051A,2026-06-18T19:53:11.629248,15.21266306,.0002712,97.2829,237.5018,337.3046,22.8070,0,U,45939,999,32759,.10636E-3,.231E-4,0
NEMO-HD,2020-061F,2026-06-18T19:32:21.981120,15.44621361,.0002191,97.1915,231.7507,79.7731,280.3765,0,U,46277,999,32223,.1868E-3,.8608E-4,0
NAPA-1,2020-061BA,2026-06-18T21:15:24.619104,15.68177385,.0001504,97.2459,244.1209,175.0064,185.1212,0,U,46320,999,32200,.52886E-3,.59089E-3,0
JILIN-1 GAOFEN 3E,2020-065D,2026-06-18T19:43:24.009024,15.63795946,.001289,97.2239,222.4688,151.8975,208.2983,0,U,46457,999,32001,.54068E-3,.50875E-3,0
JILIN-1 GAOFEN 3F,2020-065E,2026-06-18T20:23:28.141728,15.61048113,.0014455,97.2193,219.8250,140.8150,219.4158,0,U,46458,999,31996,.50078E-3,.42345E-3,0
JILIN-1 GAOFEN 3G,2020-065F,2026-06-18T17:45:25.905024,15.71466701,.0007881,97.2259,226.5428,59.0840,301.1197,0,U,46459,999,32018,.61306E-3,.78783E-3,0
JILIN-1 GAOFEN 3H,2020-065G,2026-06-18T20:13:16.643136,15.67986386,.0003332,97.2205,222.9671,338.5042,21.6079,0,U,46460,999,32014,.54171E-3,.6008E-3,0
HAIYANG-2C,2020-066A,2026-06-18T19:53:07.709280,13.83376492,.0008872,65.9954,211.1977,237.9273,122.0934,0,U,46469,999,28972,.19107E-3,.129E-5,0
HJ-2A,2020-067A,2026-06-18T20:37:32.362176,14.76518929,.0002343,97.8828,248.1924,259.4767,100.6179,0,U,46478,999,30850,.12313E-3,.808E-5,0
HJ-2B,2020-067B,2026-06-18T19:53:00.164832,14.76558458,.0001299,97.8893,249.1851,99.1504,260.9853,0,U,46479,999,30850,.20006E-4,.9E-6,0
GONETS-M 17,2020-068A,2026-06-18T21:35:49.434144,12.42873247,.0023017,82.4987,346.4363,33.9010,326.3536,0,U,46486,999,25937,.34037E-4,.15E-6,0
GONETS-M 18,2020-068B,2026-06-18T20:43:29.316000,12.42873541,.0020243,82.4940,345.5761,30.7375,329.4885,0,U,46487,999,25935,-.68862E-4,0,0
GONETS-M 19,2020-068C,2026-06-18T20:08:03.295392,12.42892067,.0014208,82.4966,346.0422,46.3616,313.8639,0,U,46488,999,25945,-.27781E-3,-.29E-6,0
DEKART,2020-068H,2026-06-18T20:00:57.606048,15.37379942,.0006979,97.8739,179.2221,278.7501,81.2952,0,U,46493,999,31602,.2617E-3,.9506E-4,0
NORBI,2020-068J,2026-06-18T20:05:33.215136,15.48510891,.0004987,97.8621,185.9474,237.9652,122.1113,0,U,46494,999,31646,.34591E-3,.18324E-3,0
SALSAT,2020-068K,2026-06-18T10:53:20.067072,15.29814902,.0007987,97.8850,172.5954,302.8690,57.1780,0,U,46495,999,31555,.21401E-3,.61E-4,0
